NORAD_CAT_ID,OBJECT_NAME,OBJECT_TYPE,EPOCH,MEAN_MOTION,ECCENTRICITY,INCLINATION,RA_OF_ASC_NODE,ARG_OF_PERICENTER,MEAN_ANOMALY,BSTAR,MEAN_MOTION_DOT,MEAN_MOTION_DDOT,TLE_LINE0,TLE_LINE1,TLE_LINE2,SEMIMAJOR_AXIS,PERIOD,APOGEE,PERIGEE,DECAYED
51885.0,STARLINK-3584,PAYLOAD,2023-03-01 20:55:17,15.08826593,0.0001484,53.2139,274.3542,105.9667,254.1488,-3.0326e-05,-7.7e-06,0.0,0 STARLINK-3584,1 51885U 22022AK  23060.87173483 -.00000770  00000-0 -30326-4 0  9991,2 51885  53.2139 274.3542 0001484 105.9667 254.1488 15.08826593 56606,6917.921,95.438,540.813,538.76,0.0
51885.0,STARLINK-3584,PAYLOAD,2023-03-02 19:10:43,15.08813729,0.0001742,53.2152,270.19,110.1985,249.9194,0.0010199,0.00015969,0.0,0 STARLINK-3584,1 51885U 22022AK  23061.79910959  .00015969  00000-0  10199-2 0  9998,2 51885  53.2152 270.1900 0001742 110.1985 249.9194 15.08813729 56749,6917.961,95.439,541.031,538.621,0.0
51885.0,STARLINK-3584,PAYLOAD,2023-03-02 23:56:51,15.08839018,0.0001559,53.2152,269.2972,114.7216,245.3939,0.00040659,6.189e-05,0.0,0 STARLINK-3584,1 51885U 22022AK  23061.99781559  .00006189  00000-0  40659-3 0  9991,2 51885  53.2152 269.2972 0001559 114.7216 245.3939 15.08839018 56779,6917.883,95.438,540.827,538.67,0.0
51885.0,STARLINK-3584,PAYLOAD,2023-03-03 12:39:56,15.08842145,0.0001348,53.2143,266.9172,116.6986,243.4144,0.00019951,2.889e-05,0.0,0 STARLINK-3584,1 51885U 22022AK  23062.52773373  .00002889  00000-0  19951-3 0  9990,2 51885  53.2143 266.9172 0001348 116.6986 243.4144 15.08842145 56857,6917.874,95.437,540.671,538.806,0.0
51885.0,STARLINK-3584,PAYLOAD,2023-03-03 20:36:51,15.08852,0.0001307,53.213,265.4338,95.0914,265.0228,0.00032568,4.901e-05,0.0,0 STARLINK-3584,1 51885U 22022AK  23062.85892948  .00004901  00000-0  32568-3 0  9992,2 51885  53.2130 265.4338 0001307  95.0914 265.0228 15.08852000 56907,6917.844,95.437,540.613,538.805,0.0
51885.0,STARLINK-3584,PAYLOAD,2023-03-04 14:06:06,15.08840828,0.000141,53.2128,262.1612,87.0839,273.0314,2.121e-05,5e-07,0.0,0 STARLINK-3584,1 51885U 22022AK  23063.58757311  .00000050  00000-0  21210-4 0  9991,2 51885  53.2128 262.1612 0001410  87.0839 273.0314 15.08840828 57018,6917.878,95.438,540.718,538.767,0.0
51885.0,STARLINK-3584,PAYLOAD,2023-03-04 22:03:02,15.08836978,0.0001206,53.2127,260.6742,86.9009,273.2121,-3.9985e-05,-9.24e-06,0.0,0 STARLINK-3584,1 51885U 22022AK  23063.91877492 -.00000924  00000-0 -39985-4 0  9991,2 51885  53.2127 260.6742 0001206  86.9009 273.2121 15.08836978 57068,6917.89,95.438,540.589,538.92,0.0
51885.0,STARLINK-3584,PAYLOAD,2023-03-05 05:59:57,15.08834623,0.0001113,53.2127,259.1881,82.458,277.6538,-3.0327e-05,-7.7e-06,0.0,0 STARLINK-3584,1 51885U 22022AK  23064.24997681 -.00000770  00000-0 -30327-4 0  9991,2 51885  53.2127 259.1881 0001113  82.4580 277.6538 15.08834623 57118,6917.897,95.438,540.532,538.992,0.0
51885.0,STARLINK-3584,PAYLOAD,2023-03-05 20:18:26,15.08846074,0.0001112,53.2131,256.5112,82.6952,277.4167,0.00013842,1.916e-05,0.0,0 STARLINK-3584,1 51885U 22022AK  23064.84613439  .00001916  00000-0  13842-3 0  9996,2 51885  53.2131 256.5112 0001112  82.6952 277.4167 15.08846074 57204,6917.862,95.437,540.496,538.958,0.0
51885.0,STARLINK-3584,PAYLOAD,2023-03-06 12:12:17,15.08837788,0.0001048,53.2126,253.5387,69.3602,290.7503,0.00018851,2.713e-05,0.0,0 STARLINK-3584,1 51885U 22022AK  23065.50854044  .00002713  00000-0  18851-3 0  9990,2 51885  53.2126 253.5387 0001048  69.3602 290.7503 15.08837788 57306,6917.887,95.438,540.477,539.027,0.0
51885.0,STARLINK-3584,PAYLOAD,2023-03-06 21:44:36,15.08843581,0.0001204,53.2128,251.7548,66.5842,293.5277,0.00023117,3.393e-05,0.0,0 STARLINK-3584,1 51885U 22022AK  23065.90597888  .00003393  00000-0  23117-3 0  9990,2 51885  53.2128 251.7548 0001204  66.5842 293.5277 15.08843581 57369,6917.869,95.437,540.567,538.902,0.0
51885.0,STARLINK-3584,PAYLOAD,2023-03-07 18:24:37,15.08850253,0.000129,53.2112,247.8878,82.1862,277.9277,0.00029106,4.349e-05,0.0,0 STARLINK-3584,1 51885U 22022AK  23066.76709565  .00004349  00000-0  29106-3 0  9998,2 51885  53.2112 247.8878 0001290  82.1862 277.9277 15.08850253 57499,6917.849,95.437,540.606,538.822,0.0
51885.0,STARLINK-3584,PAYLOAD,2023-03-07 21:35:23,15.08851816,0.0001279,53.2122,247.2936,83.4565,276.6573,0.00025461,3.768e-05,0.0,0 STARLINK-3584,1 51885U 22022AK  23066.89957432  .00003768  00000-0  25461-3 0  9994,2 51885  53.2122 247.2936 0001279  83.4565 276.6573 15.08851816 57514,6917.844,95.437,540.594,538.824,0.0
51885.0,STARLINK-3584,PAYLOAD,2023-03-08 11:53:52,15.088385,0.0001669,53.2113,244.6154,82.7116,277.4066,6.7504e-05,7.86e-06,0.0,0 STARLINK-3584,1 51885U 22022AK  23067.49574157  .00000786  00000-0  67504-4 0  9992,2 51885  53.2113 244.6154 0001669  82.7116 277.4066 15.08838500 57605,6917.885,95.438,540.905,538.595,0.0
51885.0,STARLINK-3584,PAYLOAD,2023-03-08 21:26:11,15.08839953,0.0001497,53.2121,242.833,72.604,287.5115,0.00015461,2.173e-05,0.0,0 STARLINK-3584,1 51885U 22022AK  23067.89318355  .00002173  00000-0  15461-3 0  9998,2 51885  53.2121 242.8330 0001497  72.6040 287.5115 15.08839953 57669,6917.881,95.438,540.781,538.71,0.0
51885.0,STARLINK-3584,PAYLOAD,2023-03-09 18:06:11,15.08854134,0.0001475,53.2123,238.9655,77.3954,282.7203,0.00040191,6.117e-05,0.0,0 STARLINK-3584,1 51885U 22022AK  23068.75429771  .00006117  00000-0  40191-3 0  9999,2 51885  53.2123 238.9655 0001475  77.3954 282.7203 15.08854134 57796,6917.837,95.437,540.723,538.682,0.0
51885.0,STARLINK-3584,PAYLOAD,2023-03-10 11:35:26,15.08841149,0.0001348,53.2132,235.6947,64.6614,295.4518,0.00018081,2.591e-05,0.0,0 STARLINK-3584,1 51885U 22022AK  23069.48294370  .00002591  00000-0  18081-3 0  9990,2 51885  53.2132 235.6947 0001348  64.6614 295.4518 15.08841149 57900,6917.877,95.437,540.674,538.809,0.0
51885.0,STARLINK-3584,PAYLOAD,2023-03-10 17:56:58,15.0884564,6.19e-05,53.213,234.5046,29.6497,330.453,0.00028321,4.223e-05,0.0,0 STARLINK-3584,1 51885U 22022AK  23069.74790198  .00004223  00000-0  28321-3 0  9990,2 51885  53.2130 234.5046 0000619  29.6497 330.4530 15.08845640 57944,6917.863,95.437,540.156,539.3,0.0
51885.0,STARLINK-3584,PAYLOAD,2023-03-11 11:26:13,15.08836022,0.0001123,53.2142,231.238,90.0236,270.0884,-4.6416e-05,-1.026e-05,0.0,0 STARLINK-3584,1 51885U 22022AK  23070.47654358 -.00001026  00000-0 -46416-4 0  9995,2 51885  53.2142 231.2380 0001123  90.0236 270.0884 15.08836022 58054,6917.893,95.438,540.534,538.981,0.0
51885.0,STARLINK-3584,PAYLOAD,2023-03-11 19:23:08,15.08848767,0.0001088,53.2151,229.7479,88.5929,271.5188,0.00018765,2.701e-05,0.0,0 STARLINK-3584,1 51885U 22022AK  23070.80773835  .00002701  00000-0  18765-3 0  9998,2 51885  53.2151 229.7479 0001088  88.5929 271.5188 15.08848767 58104,6917.854,95.437,540.471,538.966,0.0
51885.0,STARLINK-3584,PAYLOAD,2023-03-11 20:58:31,15.08849456,0.0001062,53.214,229.4507,87.937,272.1744,0.00018747,2.698e-05,0.0,0 STARLINK-3584,1 51885U 22022AK  23070.87397803  .00002698  00000-0  18747-3 0  9997,2 51885  53.2140 229.4507 0001062  87.9370 272.1744 15.08849456 58118,6917.851,95.437,540.451,538.982,0.0
51885.0,STARLINK-3584,PAYLOAD,2023-03-12 11:17:00,15.08833118,0.000113,53.2131,226.7722,79.0816,281.0303,-6.3508e-05,-1.298e-05,0.0,0 STARLINK-3584,1 51885U 22022AK  23071.47014869 -.00001298  00000-0 -63508-4 0  9995,2 51885  53.2131 226.7722 0001130  79.0816 281.0303 15.08833118 58208,6917.901,95.438,540.548,538.985,0.0
51885.0,STARLINK-3584,PAYLOAD,2023-03-12 19:13:56,15.08845342,0.0001117,53.2152,225.2875,86.7709,273.3411,0.00012597,1.718e-05,0.0,0 STARLINK-3584,1 51885U 22022AK  23071.80134314  .00001718  00000-0  12597-3 0  9996,2 51885  53.2152 225.2875 0001117  86.7709 273.3411 15.08845342 58256,6917.864,95.437,540.502,538.956,0.0
51885.0,STARLINK-3584,PAYLOAD,2023-03-13 11:07:48,15.0883071,0.0001376,53.2171,222.3156,100.3636,259.7512,5.5465e-05,5.95e-06,0.0,0 STARLINK-3584,1 51885U 22022AK  23072.46375996  .00000595  00000-0  55465-4 0  9996,2 51885  53.2171 222.3156 0001376 100.3636 259.7512 15.08830710 58350,6917.909,95.438,540.726,538.822,0.0
51885.0,STARLINK-3584,PAYLOAD,2023-03-13 19:04:43,15.08841364,0.0001573,53.2155,220.8262,86.2632,273.854,2.6985e-05,1.41e-06,0.0,0 STARLINK-3584,1 51885U 22022AK  23072.79495278  .00000141  00000-0  26985-4 0  9990,2 51885  53.2155 220.8262 0001573  86.2632 273.8540 15.08841364 58401,6917.876,95.437,540.829,538.653,0.0
51885.0,STARLINK-3584,PAYLOAD,2023-03-14 09:23:11,15.08843843,0.0001764,53.2157,218.1501,103.3492,256.7697,0.00019698,2.849e-05,0.0,0 STARLINK-3584,1 51885U 22022AK  23073.39110813  .00002849  00000-0  19698-3 0  9995,2 51885  53.2157 218.1501 0001764 103.3492 256.7697 15.08843843 58492,6917.869,95.437,540.954,538.513,0.0
51885.0,STARLINK-3584,PAYLOAD,2023-03-14 15:44:44,15.08849792,0.0001327,53.2145,216.9604,96.2427,263.8717,0.00020196,2.929e-05,0.0,0 STARLINK-3584,1 51885U 22022AK  23073.65606589  .00002929  00000-0  20196-3 0  9998,2 51885  53.2145 216.9604 0001327  96.2427 263.8717 15.08849792 58538,6917.85,95.437,540.633,538.797,0.0
51885.0,STARLINK-3584,PAYLOAD,2023-03-15 09:13:58,15.08851445,0.0001031,53.2138,213.6887,106.9455,253.165,0.0001695,2.412e-05,0.0,0 STARLINK-3584,1 51885U 22022AK  23074.38470279  .00002412  00000-0  16950-3 0  9994,2 51885  53.2138 213.6887 0001031 106.9455 253.1650 15.08851445 58647,6917.845,95.437,540.424,538.997,0.0
51885.0,STARLINK-3584,PAYLOAD,2023-03-15 17:10:53,15.08863647,0.0001662,53.2135,212.2016,96.3996,263.7185,0.00032736,4.929e-05,0.0,0 STARLINK-3584,1 51885U 22022AK  23074.71589500  .00004929  00000-0  32736-3 0  9994,2 51885  53.2135 212.2016 0001662  96.3996 263.7185 15.08863647 58697,6917.808,95.436,540.823,538.523,0.0
51885.0,STARLINK-3584,PAYLOAD,2023-03-16 02:43:12,15.08843637,0.0001155,53.2142,210.4195,100.5646,259.5477,-1.0974e-05,-4.62e-06,0.0,0 STARLINK-3584,1 51885U 22022AK  23075.11334048 -.00000462  00000-0 -10974-4 0  9995,2 51885  53.2142 210.4195 0001155 100.5646 259.5477 15.08843637 58751,6917.869,95.437,540.533,538.935,0.0
